H1 CPF 01  gfz 2022 09 16 00  7591 tandemx   
H2 1003001  6202 36605    2022 09 16 00 59 42 2022 09 21 00 00 42   120 1 1  0 0 0
H9
10 0 59841  59022.000000  0    5267369.991   2883247.839  -3384819.422
10 0 59841  59142.000000  0    5698747.802   2901362.739  -2571284.879
10 0 59841  59262.000000  0    6030576.290   2862209.093  -1712600.311
10 0 59841  59382.000000  0    6255993.373   2768226.427   -823817.210
10 0 59841  59502.000000  0    6370053.469   2622924.128     79454.168
10 0 59841  59622.000000  0    6369840.385   2430787.638    981326.108
10 0 59841  59742.000000  0    6254539.533   2197164.221   1865919.448
10 0 59841  59862.000000  0    6025470.378   1928132.781   2717652.092
10 0 59841  59982.000000  0    5686073.917   1630357.668   3521522.689
10 0 59841  60102.000000  0    5241857.269   1310932.484   4263382.013
10 0 59841  60222.000000  0    4700295.907    977217.030   4930185.556
10 0 59841  60342.000000  0    4070699.824    636672.891   5510223.143
10 0 59841  60462.000000  0    3364043.776    296699.546   5993323.819
10 0 59841  60582.000000  0    2592766.119    -35523.214   6371028.561
10 0 59841  60702.000000  0    1770544.511   -353183.253   6636731.710
10 0 59841  60822.000000  0     912049.905   -649973.314   6785791.766
10 0 59841  60942.000000  0      32681.629   -920214.997   6815607.952
10 0 59841  61062.000000  0    -851709.329  -1158966.366   6725661.609
10 0 59841  61182.000000  0   -1725105.236  -1362112.425   6517523.797
10 0 59841  61302.000000  0   -2571610.070  -1526435.764   6194828.443
10 0 59841  61422.000000  0   -3375737.144  -1649666.741   5763214.172
10 0 59841  61542.000000  0   -4122695.891  -1730514.319   5230233.754
10 0 59841  61662.000000  0   -4798669.494  -1768676.331   4605227.331
10 0 59841  61782.000000  0   -5391077.687  -1764827.660   3899163.055
10 0 59841  61902.000000  0   -5888818.431  -1720586.283   3124447.061
10 0 59841  62022.000000  0   -6282484.283  -1638458.670   2294707.404
10 0 59841  62142.000000  0   -6564550.844  -1521766.431   1424553.671
10 0 59841  62262.000000  0   -6729529.225  -1374554.382    529313.135
10 0 59841  62382.000000  0   -6774077.101  -1201482.139   -375247.035
10 0 59841  62502.000000  0   -6697067.004  -1007702.463  -1273206.585
10 0 59841  62622.000000  0   -6499609.384   -798729.683  -2148781.205
10 0 59841  62742.000000  0   -6185031.119   -580302.022  -2986606.592
10 0 59841  62862.000000  0   -5758810.560   -358241.587  -3772013.562
10 0 59841  62982.000000  0   -5228469.533   -138313.547  -4491286.780
10 0 59841  63102.000000  0   -4603427.320     73910.454  -5131901.394
10 0 59841  63222.000000  0   -3894821.403    273181.192  -5682735.258
10 0 59841  63342.000000  0   -3115297.891    454690.195  -6134252.662
10 0 59841  63462.000000  0   -2278778.822    614175.499  -6478656.817
10 0 59841  63582.000000  0   -1400211.611    748012.784  -6710013.126
10 0 59841  63702.000000  0    -495302.693    853291.060  -6824341.101
10 0 59841  63822.000000  0     419757.987    927871.611  -6819673.822
10 0 59841  63942.000000  0    1328578.109    970428.715  -6696089.194
10 0 59841  64062.000000  0    2214850.671    980472.736  -6455711.008
10 0 59841  64182.000000  0    3062640.922    958355.003  -6102676.187
10 0 59841  64302.000000  0    3856668.742    905254.108  -5643070.119
10 0 59841  64422.000000  0    4582581.725    823143.336  -5084832.149
10 0 59841  64542.000000  0    5227217.324    714740.421  -4437630.483
10 0 59841  64662.000000  0    5778848.337    583440.231  -3712705.287
10 0 59841  64782.000000  0    6227405.330    433230.811  -2922682.396
10 0 59841  64902.000000  0    6564672.284    268595.111  -2081360.349
10 0 59841  65022.000000  0    6784451.041     94399.708  -1203471.633
10 0 59841  65142.000000  0    6882686.712    -84226.627   -304422.323
10 0 59841  65262.000000  0    6857551.978   -262021.155    599982.607
10 0 59841  65382.000000  0    6709488.376   -433720.122   1493824.452
10 0 59841  65502.000000  0    6441201.580   -594192.305   2361359.830
10 0 59841  65622.000000  0    6057610.358   -738569.715   3187307.909
10 0 59841  65742.000000  0    5565749.666   -862371.954   3957126.546
10 0 59841  65862.000000  0    4974634.589   -961621.024   4657272.834
10 0 59841  65982.000000  0    4295084.979  -1032944.865   5275444.203
10 0 59841  66102.000000  0    3539516.749  -1073664.699   5800793.282
10 0 59841  66222.000000  0    2721706.049  -1081866.199   6224114.619
10 0 59841  66342.000000  0    1856531.054  -1056453.221   6538000.363
10 0 59841  66462.000000  0     959696.869   -997182.955   6736964.917
10 0 59841  66582.000000  0      47446.655   -904681.124   6817535.212
10 0 59841  66702.000000  0    -863733.166   -780437.458   6778306.140
10 0 59841  66822.000000  0   -1757409.594   -626781.943   6619962.757
10 0 59841  66942.000000  0   -2617497.880   -446841.369   6345268.842
10 0 59841  67062.000000  0   -3428550.198   -244477.295   5959022.632
10 0 59841  67182.000000  0   -4176035.290    -24206.269   5467979.137
10 0 59841  67302.000000  0   -4846603.987    208896.374   4880738.204
10 0 59841  67422.000000  0   -5428334.751    449307.080   4207599.226
10 0 59841  67542.000000  0   -5910954.383    691177.597   3460384.140
10 0 59841  67662.000000  0   -6286028.521    928468.683   2652232.117
10 0 59841  67782.000000  0   -6547119.030   1155091.151   1797367.946
10 0 59841  67902.000000  0   -6689903.175   1365050.348    910848.100
10 0 59841  68022.000000  0   -6712251.758   1552591.124      8288.610
10 0 59841  68142.000000  0   -6614261.882   1712339.282   -894419.185
10 0 59841  68262.000000  0   -6398244.270   1839435.099  -1781397.217
10 0 59841  68382.000000  0   -6068667.291   1929656.720  -2637067.582
10 0 59841  68502.000000  0   -5632057.665   1979530.346  -3446433.435
10 0 59841  68622.000000  0   -5096860.012   1986423.017  -4195345.536
10 0 59841  68742.000000  0   -4473261.266   1948616.605  -4870748.327
10 0 59841  68862.000000  0   -3772985.121   1865361.915  -5460902.103
10 0 59841  68982.000000  0   -3009062.668   1736912.217  -5955577.901
10 0 59841  69102.000000  0   -2195584.600   1564535.669  -6346224.671
10 0 59841  69222.000000  0   -1347437.725   1350506.665  -6626106.132
10 0 59841  69342.000000  0    -480033.263   1098076.319  -6790404.550
10 0 59841  69462.000000  0     390968.076    811423.178  -6836293.937
10 0 59841  69582.000000  0    1249930.844    495585.622  -6762984.294
10 0 59841  69702.000000  0    2081520.101    156375.053  -6571735.403
10 0 59841  69822.000000  0    2870969.011   -199728.138  -6265836.743
10 0 59841  69942.000000  0    3604337.170   -565694.120  -5850557.377
10 0 59841  70062.000000  0    4268754.329   -934077.645  -5333063.297
10 0 59841  70182.000000  0    4852647.847  -1297164.408  -4722306.200
10 0 59841  70302.000000  0    5345950.687  -1647128.462  -4028880.178
10 0 59841  70422.000000  0    5740283.808  -1976196.336  -3264847.878
10 0 59841  70542.000000  0    6029109.527  -2276815.232  -2443538.032
10 0 59841  70662.000000  0    6207851.337  -2541821.667  -1579316.568
10 0 59841  70782.000000  0    6273976.502  -2764605.974   -687335.582
10 0 59841  70902.000000  0    6227039.573  -2939268.870    216735.448
10 0 59841  71022.000000  0    6068684.401  -3060765.868   1116991.030
10 0 59841  71142.000000  0    5802604.837  -3125035.634   1997578.450
10 0 59841  71262.000000  0    5434461.529  -3129108.443   2842986.632
10 0 59841  71382.000000  0    4971760.135  -3071192.179   3638327.308
10 0 59841  71502.000000  0    4423693.003  -2950732.372   4369602.968
10 0 59841  71622.000000  0    3800951.178  -2768447.521   5023956.083
10 0 59841  71742.000000  0    3115507.622  -2526338.190   5589897.072
10 0 59841  71862.000000  0    2380378.771  -2227668.020   6057503.002
10 0 59841  71982.000000  0    1609371.572  -1876919.457   6418586.758
10 0 59841  72102.000000  0     816819.914  -1479725.015   6666834.634
10 0 59841  72222.000000  0      17315.480  -1042774.979   6797910.637
10 0 59841  72342.000000  0    -774561.219   -573703.229   6809526.908
10 0 59841  72462.000000  0   -1544505.613    -80953.718   6701480.529
10 0 59841  72582.000000  0   -2278746.352    426371.202   6475656.879
10 0 59841  72702.000000  0   -2964291.040    938678.209   6135999.117
10 0 59841  72822.000000  0   -3589157.124   1446063.327   5688444.041
10 0 59841  72942.000000  0   -4142584.799   1938502.574   5140824.826
10 0 59841  73062.000000  0   -4615228.447   2406050.187   4502740.425
10 0 59841  73182.000000  0   -4999321.523   2839040.539   3785391.356
10 0 59841  73302.000000  0   -5288810.740   3228288.720   3001385.694
10 0 59841  73422.000000  0   -5479458.030   3565285.954   2164518.481
10 0 59841  73542.000000  0   -5568907.675   3842386.309   1289527.030
10 0 59841  73662.000000  0   -5556715.423   4052978.226    391824.899
10 0 59841  73782.000000  0   -5444337.866   4191636.278   -512777.235
10 0 59841  73902.000000  0   -5235084.452   4254250.300  -1408358.494
10 0 59841  74022.000000  0   -4934031.789   4238128.518  -2279177.840
10 0 59841  74142.000000  0   -4547901.068   4142070.001  -3109959.189
10 0 59841  74262.000000  0   -4084904.196   3966406.249  -3886163.828
10 0 59841  74382.000000  0   -3554562.986   3713011.462  -4594245.047
10 0 59841  74502.000000  0   -2967506.779   3385282.415  -5221880.380
10 0 59841  74622.000000  0   -2335255.287   2988088.944  -5758177.821
10 0 59841  74742.000000  0   -1669989.874   2527697.300  -6193856.264
10 0 59841  74862.000000  0    -984317.029   2011666.100  -6521395.111
10 0 59841  74982.000000  0    -291031.225   1448719.541  -6735151.884
10 0 59841  75102.000000  0     397119.627    848599.650  -6831449.251
10 0 59841  75222.000000  0    1067662.294    221900.429  -6808632.087
10 0 59841  75342.000000  0    1708620.084   -420115.567  -6667093.537
10 0 59841  75462.000000  0    2308721.380  -1065714.818  -6409267.511
99
